      2.10          N: GNSS NAV DATA                        RINEX VERSION / TYPE
rnw                                     03/10/2022 00:00:09 PGM / RUN BY / DATE
                                                            END OF HEADER
26 22  3 10  6  0  0.0 1.895818859339e-04 3.069544618484e-12 0.000000000000e+00
    1.700000000000e+01 7.759375000000e+01 4.848416241712e-09 2.717341644415e+00
    3.978610038757e-06 6.909427000210e-03 7.465481758118e-06 5.153717357635e+03
    3.672000000000e+05-6.146728992462e-08 1.835667407099e+00-6.891787052155e-08
    9.380738649418e-01 2.240625000000e+02 3.812944751768e-01-8.175697693483e-09
   -8.178912113090e-11 1.000000000000e+00 2.200000000000e+03 0.000000000000e+00
    2.400000000000e+00 0.000000000000e+00 6.984919309616e-09 1.700000000000e+01
    3.653700000000e+05 4.000000000000e+00
26 22  3 10  6  0  0.0 1.895818859339e-04 3.069544618484e-12 0.000000000000e+00
    1.700000000000e+01 7.759375000000e+01 4.848416241712e-09 2.717341644415e+00
    3.978610038757e-06 6.909427000210e-03 7.465481758118e-06 5.153717357635e+03
    3.672000000000e+05-6.146728992462e-08 1.835667407099e+00-6.891787052155e-08
    9.380738649418e-01 2.240625000000e+02 3.812944751768e-01-8.175697693483e-09
   -8.178912113090e-11 1.000000000000e+00 2.200000000000e+03 0.000000000000e+00
    2.400000000000e+00 0.000000000000e+00 6.984919309616e-09 1.700000000000e+01
    3.653700000000e+05 4.000000000000e+00
 9 22  3 10  6  0  0.0-3.505465574563e-04 1.932676241267e-12 0.000000000000e+00
    7.900000000000e+01-1.471875000000e+01 4.791628161975e-09 1.310028428880e+00
   -9.443610906601e-07 2.182003110647e-03 7.400289177895e-06 5.153603881836e+03
    3.672000000000e+05-4.656612873077e-08-2.245003359344e-01-5.960464477539e-08
    9.545003927383e-01 2.308437500000e+02 1.877139036821e+00-8.062121534008e-09
    1.071473202588e-12 1.000000000000e+00 2.200000000000e+03 0.000000000000e+00
    2.400000000000e+00 0.000000000000e+00 1.396983861923e-09 7.900000000000e+01
    3.666900000000e+05 4.000000000000e+00
 9 22  3 10  6  0  0.0-3.505465574563e-04 1.932676241267e-12 0.000000000000e+00
    7.900000000000e+01-1.471875000000e+01 4.791628161975e-09 1.310028428880e+00
   -9.443610906601e-07 2.182003110647e-03 7.400289177895e-06 5.153603881836e+03
    3.672000000000e+05-4.656612873077e-08-2.245003359344e-01-5.960464477539e-08
    9.545003927383e-01 2.308437500000e+02 1.877139036821e+00-8.062121534008e-09
    1.071473202588e-12 1.000000000000e+00 2.200000000000e+03 0.000000000000e+00
    2.400000000000e+00 0.000000000000e+00 1.396983861923e-09 7.900000000000e+01
    3.666900000000e+05 4.000000000000e+00
 1 22  3 10  8  0  0.0 4.124948754907e-04-9.208633855451e-12 0.000000000000e+00
    7.300000000000e+01-5.825000000000e+01 4.024096191187e-09-2.730011553654e-01
   -2.913177013397e-06 1.151311595459e-02 5.843117833138e-06 5.153668975830e+03
    3.744000000000e+05 2.048909664154e-08-2.287919917642e+00 1.545995473862e-07
    9.871260230868e-01 2.840937500000e+02 8.830632429229e-01-8.081765209389e-09
    6.571702309208e-11 1.000000000000e+00 2.200000000000e+03 0.000000000000e+00
    2.400000000000e+00 0.000000000000e+00 5.122274160385e-09 7.300000000000e+01
    3.672000000000e+05 4.000000000000e+00
 3 22  3 10  8  0  0.0-1.567187719047e-04-1.705302565824e-11 0.000000000000e+00
    7.400000000000e+01-5.546875000000e+01 4.346252467432e-09-1.414889469311e+00
   -2.790242433548e-06 3.938460955396e-03 8.009374141693e-06 5.153666780472e+03
    3.744000000000e+05 8.195638656616e-08-1.252840500533e+00 5.401670932770e-08
    9.725859691152e-01 2.327812500000e+02 9.479442185731e-01-7.834254899591e-09
    2.932264997750e-10 1.000000000000e+00 2.200000000000e+03 0.000000000000e+00
    3.400000000000e+00 0.000000000000e+00 1.862645149231e-09 7.400000000000e+01
    3.672000000000e+05 4.000000000000e+00
 4 22  3 10  8  0  0.0-1.846444793046e-04 2.614797267597e-12 0.000000000000e+00
    1.510000000000e+02-1.468750000000e+01 4.776270379404e-09 1.475832342638e+00
   -5.494803190231e-07 1.733181066811e-03 7.579103112221e-06 5.153641059875e+03
    3.744000000000e+05 7.078051567078e-08-1.714336248300e-01 1.490116119385e-08
    9.615147967336e-01 2.336562500000e+02-3.022706564867e+00-8.040334912222e-09
    1.071473202588e-11 1.000000000000e+00 2.200000000000e+03 0.000000000000e+00
    2.400000000000e+00 0.000000000000e+00-4.190951585770e-09 9.190000000000e+02
    3.672000000000e+05 4.000000000000e+00
 9 22  3 10  8  0  0.0-3.505325876176e-04 1.932676241267e-12 0.000000000000e+00
    1.030000000000e+02-1.568750000000e+01 4.868417074827e-09 2.360346368735e+00
   -7.245689630508e-07 2.182006021030e-03 7.370486855507e-06 5.153603513718e+03
    3.744000000000e+05 6.332993507385e-08-2.245583976900e-01-6.519258022308e-08
    9.545004658843e-01 2.296250000000e+02 1.877047085105e+00-8.063550164945e-09
    3.250135381184e-11 1.000000000000e+00 2.200000000000e+03 0.000000000000e+00
    2.400000000000e+00 0.000000000000e+00 1.396983861923e-09 1.030000000000e+02
    3.672000000000e+05 4.000000000000e+00
17 22  3 10  8  0  0.0 5.853017792106e-04 5.002220859751e-12 0.000000000000e+00
    9.300000000000e+01 2.418750000000e+01 3.941235596854e-09 1.881155683216e+00
    1.151114702225e-06 1.354248123243e-02 4.321336746216e-06 5.153771711349e+03
    3.744000000000e+05 1.993030309677e-07 2.997635485905e+00-1.750886440277e-07
    9.798359043841e-01 3.023125000000e+02-1.494642617910e+00-7.824968798502e-09
    6.893144269984e-11 1.000000000000e+00 2.200000000000e+03 0.000000000000e+00
    3.400000000000e+00 0.000000000000e+00-1.117587089539e-08 9.300000000000e+01
    3.672000000000e+05 4.000000000000e+00
21 22  3 10  8  0  0.0 1.591905020177e-04 4.547473508865e-13 0.000000000000e+00
    2.300000000000e+01-5.600000000000e+01 4.477686513616e-09 2.089026909385e+00
   -2.905726432800e-06 2.457020734437e-02 4.492700099945e-06 5.153576133728e+03
    3.744000000000e+05 3.259629011154e-07-2.379426994194e+00 1.005828380585e-07
    9.597006642077e-01 2.896875000000e+02-9.895344090286e-01-7.863541833795e-09
   -1.839362331110e-10 1.000000000000e+00 2.200000000000e+03 0.000000000000e+00
    2.400000000000e+00 0.000000000000e+00-1.024454832077e-08 2.300000000000e+01
    3.672000000000e+05 4.000000000000e+00
22 22  3 10  8  0  0.0 2.252608537674e-04 5.798028723802e-12 0.000000000000e+00
    1.230000000000e+02-1.868750000000e+01 4.659836958056e-09 1.775163589135e+00
   -1.251697540283e-06 1.304647757206e-02 7.724389433861e-06 5.153661596298e+03
    3.744000000000e+05-1.005828380585e-07-1.231231851692e-01-3.185123205185e-07
    9.616704307364e-01 2.330937500000e+02-1.867696101039e+00-7.933901907432e-09
   -1.357199389945e-11 1.000000000000e+00 2.200000000000e+03 0.000000000000e+00
    3.400000000000e+00 0.000000000000e+00-9.778887033463e-09 1.230000000000e+02
    3.672000000000e+05 4.000000000000e+00
26 22  3 10  8  0  0.0 1.896037720144e-04 3.069544618484e-12 0.000000000000e+00
    1.800000000000e+01 6.981250000000e+01 4.835558563281e-09-2.515781992510e+00
    3.570690751076e-06 6.909801508300e-03 7.241964340210e-06 5.153716531754e+03
    3.744000000000e+05-2.421438694000e-08 1.835608701659e+00-5.587935447693e-08
    9.380733646238e-01 2.298750000000e+02 3.813887295257e-01-8.152839598494e-09
   -8.214627886510e-11 1.000000000000e+00 2.200000000000e+03 0.000000000000e+00
    2.400000000000e+00 0.000000000000e+00 6.984919309616e-09 1.800000000000e+01
    3.672000000000e+05 4.000000000000e+00
31 22  3 10  8  0  0.0-1.682606525719e-04-1.705302565824e-12 0.000000000000e+00
    4.900000000000e+01 2.825000000000e+01 4.628407077447e-09-1.401650158709e+00
    1.396983861923e-06 1.044152397662e-02 8.147209882736e-06 5.153698146820e+03
    3.744000000000e+05 1.266598701477e-07 8.651377712265e-01-1.452863216400e-07
    9.552310325439e-01 2.195625000000e+02 3.809499682096e-01-7.921044229001e-09
   -1.800074980348e-10 1.000000000000e+00 2.200000000000e+03 0.000000000000e+00
    2.400000000000e+00 0.000000000000e+00-1.350417733192e-08 4.900000000000e+01
    3.672000000000e+05 4.000000000000e+00
32 22  3 10  7 59 44.0-8.196337148547e-05-7.275957614183e-12 0.000000000000e+00
    4.000000000000e+00-1.868750000000e+01 4.724125350212e-09 2.566308295167e+00
   -1.074746251106e-06 5.735146463849e-03 7.599592208862e-06 5.153571853638e+03
    3.743840000000e+05-3.166496753693e-08-2.132589822926e-01-9.685754776001e-08
    9.583499241496e-01 2.314375000000e+02-2.324311341971e+00-7.927830225950e-09
   -7.143154683922e-13 1.000000000000e+00 2.200000000000e+03 0.000000000000e+00
    2.400000000000e+00 0.000000000000e+00 4.656612873077e-10 4.000000000000e+00
    3.672000000000e+05 4.000000000000e+00
 1 22  3 10  8  0  0.0 4.124948754907e-04-9.208633855451e-12 0.000000000000e+00
    7.300000000000e+01-5.825000000000e+01 4.024096191187e-09-2.730011553654e-01
   -2.913177013397e-06 1.151311595459e-02 5.843117833138e-06 5.153668975830e+03
    3.744000000000e+05 2.048909664154e-08-2.287919917642e+00 1.545995473862e-07
    9.871260230868e-01 2.840937500000e+02 8.830632429229e-01-8.081765209389e-09
    6.571702309208e-11 1.000000000000e+00 2.200000000000e+03 0.000000000000e+00
    2.400000000000e+00 0.000000000000e+00 5.122274160385e-09 7.300000000000e+01
    3.672000000000e+05 4.000000000000e+00
 3 22  3 10  8  0  0.0-1.567187719047e-04-1.705302565824e-11 0.000000000000e+00
    7.400000000000e+01-5.546875000000e+01 4.346252467432e-09-1.414889469311e+00
   -2.790242433548e-06 3.938460955396e-03 8.009374141693e-06 5.153666780472e+03
    3.744000000000e+05 8.195638656616e-08-1.252840500533e+00 5.401670932770e-08
    9.725859691152e-01 2.327812500000e+02 9.479442185731e-01-7.834254899591e-09
    2.932264997750e-10 1.000000000000e+00 2.200000000000e+03 0.000000000000e+00
    3.400000000000e+00 0.000000000000e+00 1.862645149231e-09 7.400000000000e+01
    3.672000000000e+05 4.000000000000e+00
